ONEWEB-0267             
1 48985U 21060U   25152.39599249  .00000057  00000+0  11605-3 0  9995
2 48985  87.9028 304.6738 0001687 106.4760 253.6556 13.16595184189482
ONEWEB-0268             
1 48986U 21060V   25152.44033472  .00000022  00000+0  24728-4 0  9996
2 48986  87.9027 304.6716 0001651  97.0750 263.0569 13.16594635189752
ONEWEB-0269             
1 48987U 21060W   25152.42133483  .00000141  00000+0  33581-3 0  9996
2 48987  87.9027 304.7098 0001787  95.2245 264.9090 13.16595816189522
ONEWEB-0270             
1 48988U 21060X   25152.43874821  .00000005  00000+0 -21083-4 0  9991
2 48988  87.9026 304.6756 0001887 112.1279 248.0052 13.16596492189565
ONEWEB-0271             
1 48989U 21060Y   25152.50208878  .00000068  00000+0  14397-3 0  9990
2 48989  87.9029 304.6444 0001691 106.1335 253.9982 13.16594534189575
ONEWEB-0272             
1 48990U 21060Z   25152.44824525  .00000004  00000+0 -23694-4 0  9990
2 48990  87.9027 304.6867 0001715 103.2424 256.8898 13.16595116189517
ONEWEB-0273             
1 48991U 21060AA  25152.85039972  .00000056  00000+0  11377-3 0  9990
2 48991  87.9026 304.5915 0001922 103.1228 257.0118 13.16594791190845
ONEWEB-0274             
1 48992U 21060AB  25152.41973455  .00000108  00000+0  25015-3 0  9998
2 48992  87.9029 304.7135 0001388  95.1234 265.0055 13.16593288189520
